{
    "links": {
        "self": "http://www.neowsapp.com/rest/v1/neo/3843130?api_key=iIulBulltgU6a56xZRHN4H3l9WmuAYTsLGpBGhQ2"
    },
    "id": "3843130",
    "neo_reference_id": "3843130",
    "name": "(2019 ND2)",
    "designation": "2019 ND2",
    "nasa_jpl_url": "http://ssd.jpl.nasa.gov/sbdb.cgi?sstr=3843130",
    "absolute_magnitude_h": 24.8,
    "estimated_diameter": {
        "kilometers": {
            "estimated_diameter_min": 0.0291443905,
            "estimated_diameter_max": 0.0651688382
        },
        "meters": {
            "estimated_diameter_min": 29.1443904535,
            "estimated_diameter_max": 65.1688382168
        },
        "miles": {
            "estimated_diameter_min": 0.018109479,
            "estimated_diameter_max": 0.0404940262
        },
        "feet": {
            "estimated_diameter_min": 95.6180819754,
            "estimated_diameter_max": 213.8085311752
        }
    },
    "is_potentially_hazardous_asteroid": false,
    "close_approach_data": [
        {
            "close_approach_date": "2019-07-11",
            "close_approach_date_full": "2019-Jul-11 04:46",
            "epoch_date_close_approach": 1562820360000,
            "relative_velocity": {
                "kilometers_per_second": "5.1691792936",
                "kilometers_per_hour": "18609.0454568253",
                "miles_per_hour": "11562.9371617701"
            },
            "miss_distance": {
                "astronomical": "0.0984509547",
                "lunar": "38.2974213783",
                "kilometers": "14728053.122586489",
                "miles": "9151587.8456079882"
            },
            "orbiting_body": "Earth"
        }
    ],
    "orbital_data": {
        "orbit_id": "2",
        "orbit_determination_date": "2019-07-23 02:50:19",
        "first_observation_date": "2019-07-01",
        "last_observation_date": "2019-07-08",
        "data_arc_in_days": 7,
        "observations_used": 15,
        "orbit_uncertainty": "8",
        "minimum_orbit_intersection": ".0730996",
        "jupiter_tisserand_invariant": "4.227",
        "epoch_osculation": "2458666.5",
        "eccentricity": ".3356264051101602",
        "semi_major_axis": "1.639961872643601",
        "inclination": "4.967705518380871",
        "ascending_node_longitude": "96.03231398526938",
        "orbital_period": "767.0948265739146",
        "perihelion_distance": "1.089547364810503",
        "perihelion_argument": "184.7240482695471",
        "aphelion_distance": "2.190376380476699",
        "perihelion_time": "2458671.531772034337",
        "mean_anomaly": "357.6385736552914",
        "mean_motion": ".4693031259353848",
        "equinox": "J2000",
        "orbit_class": {
            "orbit_class_type": "AMO",
            "orbit_class_description": "Near-Earth asteroid orbits similar to that of 1221 Amor",
            "orbit_class_range": "1.017 AU < q (perihelion) < 1.3 AU"
        }
    },
    "is_sentry_object": false
}